# Made by eph2tle, compiled Dec 15 2023 22:07:13
# Run at Sat Dec 23 09:33:06 2023
#
#    The following TLEs (Two-Line Elements) were generated by fitting
# a numerically-integrated ephemeris,  based on the orbit given below,
# to the SDP4/SGP4 models.  Each TLE is good for the interval between
# its epoch and the epoch of the subsequent TLE (usually one day).
# The maximum deviation between the numerically integrated ephemerides
# and the TLE-based ephemeris, in kilometers,  is given for each TLE
# as the "worst residual".
#
#    This fitting is done using the 'eph2tle' code packaged with Find_Orb.
# The code has details on how the TLEs were computed :
#
#    https://github.com/Bill-Gray/find_orb/eph2tle.cpp
#
#    Be warned:  the error given is that between the numerically
# integrated ephems and the TLE model.  There will usually be at
# least some additional difference between the ephems and the actual
# motion of the satellite,  especially if the ephemerides are based
# on a short arc.  If the following orbital elements say something
# like "[based on] 10 observations 2015 Jan. 1-13",  and the TLEs
# are for 2015 May,  the extrapolation may be tenuous at best.  If
# your application requires a specific level of accuracy,  you may
# want to contact me;  I can give you some idea as to the fit of the
# underlying data (and possibly TLEs based on newer data).
#
#   You can usually find the underlying observational data,  and the
# fitted orbit,  residuals,  ephemerides,  and sometimes some comments
# about the object,  among the pages listed at
#
#    https://www.projectpluto.com/pluto/mpecs/pseudo.htm
#
#    WARNING:  for this object,  "normal" TLEs cannot be fitted.  (This
# usually means an object with an hyperbolic or nearly-parabolic orbit.
# This particular object will be kicked out of the earth-moon system
# into an heliocentric orbit in 2024.)
# For this and similar cases,   an alternative model is used,  in which
# most of the traditional TLE data is replaced by six signed 8-digit hex
# numbers.  These six numbers are a state vector,  numerically integrated
# using a simplified force model.  This is necessary for objects at L2 or
# L1,  and sometimes for objects in high orbits where the SDP4/SGP4 model
# fails.  Some documentation is in 'get_el.cpp' in the source code at
# https://www.github.com/Bill-Gray/sat_code ; look for 'hex' in that file,
# with the actual integration done in 'sdp4.cpp'.  But be aware:  it's my
# own extension,  doesn't work with other code,  and is therefore used
# only when necessary.
#
#    Also,  if you use a TLE outside the "correct" time range (between
# its MJD and that of the next TLE),  all bets are off.  I've carefully
# computed and minimized the worst error over the "correct" time frame,
# but the ephemeris may (or may not) diverge wildly outside of it.
#
# Ephem range: 60310.000000 60676.000000 1.000000
# Created Sat Dec 23 09:32:19 2023
# Ephemeris start:  1 Jan 2024  0:00:00
# Ephemeris end:    1 Jan 2025  0:00:00
# Times are all TDT
# Positions/velocities are in ecliptic J2000
# Orbital elements:  2018-103B = NORAD 43846 = Chang'e 4 booster
#    Perihelion 2023 Nov 17.90681 +/- 1.48e-5 TT = 21:45:48 (JD 2460266.40681)
# Epoch 2023 Oct 12.0 TT; AMR 0.010203 +/- 7.25e-5 m^2/kg   Earth MOID: 0.0058
# M 325.59925192 +/- 0.000014         (J2000 ecliptic)             Find_Orb
# n   0.93209750 +/- 3.42e-8          Peri.  329.23081 +/- 0.00016
# a   1.03791506 +/- 2.54e-8          Node    86.14992 +/- 0.00015
# e   0.0401037 +/- 2.16e-8           Incl.    0.18838 +/- 1.79e-7
# P   1.057/386.218d         H 28.22  G  0.15   U  1.2
# q 0.99629075 +/- 7.37e-9    Q 1.07953938 +/- 4.82e-8
# 91 of 262 observations 2023 Aug. 23-Dec. 18; mean residual 0".590
#
# 1 NoradU COSPAR   Epoch.epoch     dn/dt/2  d2n/dt2/6 BSTAR    T El# C
# 2 NoradU Inclina RAAscNode Eccent  ArgPeri MeanAno  MeanMotion Rev# C

# Worst residual: 0.43 km
# MJD 60310.000000 (2024 Jan  1  0:00)
2018-103B = NORAD 43846 = Chang'e 4 booster
1 43846U 18103B   23365.99919926 +0084OQD6 +00EF2UJK -0006EXYKH 21833
2 43846                          -00037MUR +0000L25L +0001N38H     07

# Worst residual: 0.44 km
# MJD 60311.000000 (2024 Jan  2  0:00)
2018-103B = NORAD 43846 = Chang'e 4 booster
1 43846U 18103B   24001.99919926 +007CHGHU +00EJF38M +0007TZRFH 21839
2 43846                          -0003BCA4 +0000F29A +0001NMCV     07

# Worst residual: 0.53 km
# MJD 60312.000000 (2024 Jan  3  0:00)
2018-103B = NORAD 43846 = Chang'e 4 booster
1 43846U 18103B   24002.99919926 +006JF6IE +00EMAE3V +000M6VLYH 21836
2 43846                          -0003ET4A +00008SYM +0001O017     02

# Worst residual: 0.68 km
# MJD 60313.000000 (2024 Jan  4  0:00)
2018-103B = NORAD 43846 = Chang'e 4 booster
1 43846U 18103B   24003.99919926 +005PK1AD +00ENMH4Q +0010MBOLH 21837
2 43846                          -0003I0Q1 +00002A3C +0001O7L6     01

# Worst residual: 0.85 km
# MJD 60314.000000 (2024 Jan  5  0:00)
2018-103B = NORAD 43846 = Chang'e 4 booster
1 43846U 18103B   24004.99919926 +004UYBXT +00END17L +001F2RV3H 21835
2 43846                          -0003KYAR -00004IF3 +0001O89C     07

# Worst residual: 1.10 km
# MJD 60315.000000 (2024 Jan  6  0:00)
2018-103B = NORAD 43846 = Chang'e 4 booster
1 43846U 18103B   24005.99919926 +003ZOL0Q +00ELFR6Y +001TIH2QH 21830
2 43846                          -0003NKX5 -0000BKIE +0001O177     03

# Worst residual: 1.09 km
# MJD 60316.000000 (2024 Jan  7  0:00)
2018-103B = NORAD 43846 = Chang'e 4 booster
1 43846U 18103B   24006.99919926 +0033TJFB +00EHSD3X +0027VGJZH 21837
2 43846                          -0003PVKE -0000IVYS +0001NLH9     02

# Worst residual: 0.96 km
# MJD 60317.000000 (2024 Jan  8  0:00)
2018-103B = NORAD 43846 = Chang'e 4 booster
1 43846U 18103B   24007.99919926 +0027G7GR +00ECCNKC +002M3J4UH 21835
2 43846                          -0003RT4M -0000QGF1 +0001MW2R     00

# Worst residual: 0.79 km
# MJD 60318.000000 (2024 Jan  9  0:00)
2018-103B = NORAD 43846 = Chang'e 4 booster
1 43846U 18103B   24008.99919926 +001ANVBA +00E52IXV +003048FTH 21834
2 43846                          -0003TCEE -0000Y9CR +0001LVVS     02

# Worst residual: 0.69 km
# MJD 60319.000000 (2024 Jan 10  0:00)
2018-103B = NORAD 43846 = Chang'e 4 booster
1 43846U 18103B   24009.99919926 +000DK452 +00DVW0MG +003DUU53H 21834
2 43846                          -0003UG13 -00016A4K +0001KJPJ     08

# Worst residual: 0.73 km
# MJD 60320.000000 (2024 Jan 11  0:00)
2018-103B = NORAD 43846 = Chang'e 4 booster
1 43846U 18103B   24010.99919926 -000JR499 +00DKRCB6 +003R8BFMH 21834
2 43846                          -0003V2FM -0001EHWW +0001IUBT     06

# Worst residual: 0.87 km
# MJD 60321.000000 (2024 Jan 12  0:00)
2018-103B = NORAD 43846 = Chang'e 4 booster
1 43846U 18103B   24011.99919926 -001H5H29 +00D7MXUM +00445D2JH 21835
2 43846                          -0003V5PD -0001MVMM +0001GQKK     09

# Worst residual: 0.96 km
# MJD 60322.000000 (2024 Jan 13  0:00)
2018-103B = NORAD 43846 = Chang'e 4 booster
1 43846U 18103B   24012.99919926 -002EI3HS +00CSHK7A +004GIEG0H 21833
2 43846                          -0003UNLH -0001VDR7 +0001E7GV     08

# Worst residual: 0.91 km
# MJD 60323.000000 (2024 Jan 14  0:00)
2018-103B = NORAD 43846 = Chang'e 4 booster
1 43846U 18103B   24013.99919926 -003BNK62 +00CBADW8 +004S7O2VH 21830
2 43846                          -0003THM7 -00023Y6D +0001B8FE     09

# Worst residual: 0.70 km
# MJD 60324.000000 (2024 Jan 15  0:00)
2018-103B = NORAD 43846 = Chang'e 4 booster
1 43846U 18103B   24014.99919926 -0048FTXX +00BS16VR +00535BLEH 21831
2 43846                          -0003RL9P -0002CI1H +00017TE4     06

# Worst residual: 0.46 km
# MJD 60325.000000 (2024 Jan 16  0:00)
2018-103B = NORAD 43846 = Chang'e 4 booster
1 43846U 18103B   24015.99919926 -0054OBA7 +00B6QIXW +005D7KSHH 21834
2 43846                          -0003OWE0 -0002KXRR +00013YXK     08

# Worst residual: 0.36 km
# MJD 60326.000000 (2024 Jan 17  0:00)
2018-103B = NORAD 43846 = Chang'e 4 booster
1 43846U 18103B   24016.99919926 -00605YJV +00AJFVE3 +005MAV61H 21837
2 43846                          -0003LDGM -0002T57U +0000ZQ93     08

# Worst residual: 0.19 km
# MJD 60327.000000 (2024 Jan 18  0:00)
2018-103B = NORAD 43846 = Chang'e 4 booster
1 43846U 18103B   24017.99919926 -006UPGQB +009U7QXT +005UBZ4IH 21833
2 43846                          -0003GZUV -00030ZXB +0000V546     00

# Worst residual: 0.19 km
# MJD 60328.000000 (2024 Jan 19  0:00)
2018-103B = NORAD 43846 = Chang'e 4 booster
1 43846U 18103B   24018.99919926 -007O3HKW +00935R05 +0061869MH 21835
2 43846                          -0003BRXE -00038DFV +0000Q9PW     02

# Worst residual: 0.24 km
# MJD 60329.000000 (2024 Jan 20  0:00)
2018-103B = NORAD 43846 = Chang'e 4 booster
1 43846U 18103B   24019.99919926 -008G4W29 +008AEIEV +0066XAHLH 21837
2 43846                          -00035QZ4 -0003F5LM +0000L6JC     05

# Worst residual: 0.29 km
# MJD 60330.000000 (2024 Jan 21  0:00)
2018-103B = NORAD 43846 = Chang'e 4 booster
1 43846U 18103B   24020.99919926 -0096MY3M +007G3LUV +006BDRQJH 21830
2 43846                          -0002YZ4W -0003L8RE +0000FY69     01

# Worst residual: 0.31 km
# MJD 60331.000000 (2024 Jan 22  0:00)
2018-103B = NORAD 43846 = Chang'e 4 booster
1 43846U 18103B   24021.99919926 -009VFJ22 +006KFEP3 +006EKOHCH 21835
2 43846                          -0002RJ7E -0003QJY7 +0000AN7S     05

# Worst residual: 0.30 km
# MJD 60332.000000 (2024 Jan 23  0:00)
2018-103B = NORAD 43846 = Chang'e 4 booster
1 43846U 18103B   24022.99919926 -00AID8ND +005NKWQI +006GHP0MH 21837
2 43846                          -0002JIGG -0003V0YA +00005C3X     02

# Worst residual: 0.29 km
# MJD 60333.000000 (2024 Jan 24  0:00)
2018-103B = NORAD 43846 = Chang'e 4 booster
1 43846U 18103B   24023.99919926 -00B3BIAG +004PRJJ9 +006H51R2H 21839
2 43846                          -0002B0GQ -0003YMC6 +0000031T     04

